PROMETHEUS 2-3          
1 41855U 16067H   25155.50972482  .00036962  00000+0  70625-3 0  9996
2 41855  98.0723   7.4331 0003886 266.7074  93.3730 15.48017891469625
CORVUS BC2              
1 42846U 17042X   25155.51653715  .00002495  00000+0  18990-3 0  9998
2 42846  97.3720 328.3503 0013389 328.1330  31.9085 15.02903656430271
CORVUS BC1              
1 42847U 17042Y   25155.43536339  .00003640  00000+0  27338-3 0  9991
2 42847  97.3757 328.7990 0012069 300.5250  59.4784 15.03147282430283
MIRATA                  
1 43015U 17073C   25155.58481383  .00060309  00000+0  98726-3 0  9991
2 43015  97.5398  50.1915 0084605 103.6831 257.3857 15.48245114410032
MAKERSAT 0              
1 43016U 17073D   25155.12713211  .00012525  00000+0  50363-3 0  9992
2 43016  97.5204  33.3647 0147961 158.5144 202.2387 15.15452723408916
SIRION PATHFINDER-2     
1 43759U 18099B   25155.41223359  .00003894  00000+0  24427-3 0  9997
2 43759  97.4780 208.4624 0010567 154.6732 205.5017 15.09849912355537
CORVUS BC4              
1 43767U 18099K   25155.37236806  .00002984  00000+0  19604-3 0  9992
2 43767  97.4589 204.2669 0008211 211.9977 148.0754 15.08337543355379
MOVE-II                 
1 43780U 18099Y   25155.25771064  .00178125  00000+0  12182-2 0  9998
2 43780  97.4651 230.4812 0006303 190.8012 169.3118 15.74236560356966
SPACEBEE-7              
1 43816U 18099BL  25155.45358622  .00019321  00000+0  55130-3 0  9994
2 43816  97.4958 225.5868 0007799 130.8398 229.3522 15.36057610356010
SHIELDS 1               
1 43850U 18104B   25155.11731624  .00040122  00000+0  47881-3 0  9996
2 43850  85.0155  40.3963 0007930 145.3134 214.8648 15.60837685360608
SONATE                  
1 44400U 19038Q   25155.55383348  .00254873  26528-4  77340-3 0  9990
2 44400  97.6878 181.8980 0006009 211.4207 148.6707 15.92044168328776
DUCHIFAT-3              
1 44854U 19089C   25155.00712807  .00062940  00000+0  12396-2 0  9998
2 44854  36.9445  30.6183 0005103 278.8030  81.2149 15.46147242302158
M2 PATHFINDER           
1 45727U 20037E   25155.47646837  .00001594  00000+0  12572-3 0  9998
2 45727  97.8127 338.0926 0012733 355.5671   4.5439 15.02173229268744
NETSAT-4                
1 46504U 20068U   25155.50819435  .00010630  00000+0  36504-3 0  9998
2 46504  97.8445 133.0506 0006176 205.2692 154.8246 15.30314207257776
NETSAT-3                
1 46505U 20068V   25155.43034688  .00008225  00000+0  29646-3 0  9996
2 46505  97.8447 131.9219 0005588 218.6297 141.4542 15.28817120257727
NETSAT-1                
1 46506U 20068W   25155.46705038  .00008070  00000+0  33532-3 0  9991
2 46506  97.8475 129.8248 0004875 238.7466 121.3292 15.24089242257581
NETSAT-2                
1 46507U 20068X   25155.43207540  .00009259  00000+0  32246-3 0  9995
2 46507  97.8444 132.4599 0003717 235.9251 124.1636 15.29909976257709
WILDTRACKCUBE-SIMBA     
1 47941U 21022K   25155.58974573  .00026624  00000+0  56147-3 0  9993
2 47941  97.4230  60.0120 0008435 345.0407  15.0591 15.45172023232428
GRBALPHA                
1 47959U 21022AD  25155.50848402  .01194412  89301-3  13488-2 0  9992
2 47959  97.3986  70.0084 0007167 180.4373 179.6905 16.09452961231897
LEDSAT                  
1 49069U 21073D   25155.49697463  .00061789  00000+0  75613-3 0  9992
2 49069  97.3887 236.8239 0010319 103.4901 256.7506 15.60135140210647
GREENCUBE (IO-117)      
1 53109U 22080E   25155.14351457 -.00000003  00000+0  00000+0 0  9990
2 53109  70.1412  69.7102 0008687  10.0327 350.0505  6.42583936 67773
SITRO-AIS 5 (KATYS)     
1 57176U 23091L   25155.55112950  .00008301  00000+0  39106-3 0  9990
2 57176  97.5587 212.4933 0013436 354.6684   5.4405 15.19694299106815
SITRO-AIS 6 (CHIRKIN)   
1 57192U 23091AC  25155.53820804  .00007341  00000+0  34723-3 0  9993
2 57192  97.5584 212.4916 0013362 354.4783   5.6302 15.19602378106812
SITRO-AIS 8 (ANOKHIN)   
1 57193U 23091AD  25155.51625790  .00008830  00000+0  40051-3 0  9994
2 57193  97.5580 212.9635 0012764 354.1078   6.0005 15.20993564106841
SITRO-AIS 7 (FARTUSHNIY)
1 57194U 23091AE  25155.55949611  .00008245  00000+0  39055-3 0  9992
2 57194  97.5584 212.4525 0013259 355.0752   5.0349 15.19511537106819
SITRO-AIS 10 (BURDAEV)  
1 57199U 23091AK  25155.44306953  .00008830  00000+0  36369-3 0  9996
2 57199  97.5593 215.1850 0008161 339.9389  20.1526 15.24319805106970
SITRO-AIS 9 (SHCHUKIN)  
1 57201U 23091AM  25155.59147837  .00010384  00000+0  42936-3 0  9994
2 57201  97.5589 215.2504 0008170 339.5852  20.5057 15.24140227106992
SITRO-AIS 12 (SMIRENNIY)
1 57204U 23091AQ  25155.44292857  .00008654  00000+0  35636-3 0  9990
2 57204  97.5599 215.3803 0007904 333.1705  26.9122 15.24336574106984
SITRO-AIS 11 (SHEFFER)  
1 57208U 23091AU  25155.59348591  .00010787  00000+0  44063-3 0  9991
2 57208  97.5596 215.6193 0007761 332.8573  27.2257 15.24542003107014
VERONIKA                
1 58261U 23174F   25155.48553995  .00104683  00000+0  89668-3 0  9996
2 58261  97.4119 241.3587 0002556 108.5922 251.5617 15.69097144 87884
ROBUSTA-1E (ENSO)       
1 58470U 23185J   25155.49131007  .00052720  00000+0  77273-3 0  9990
2 58470  97.3736 230.4489 0008165 107.9299 252.2846 15.55357082 84246
SITRO-AIS 25            
1 59066U 24039R   25155.55209329  .00004349  00000+0  37099-3 0  9997
2 59066  95.3755 336.5918 0155103 203.7976 155.6023 14.89073660 68444
SITRO-AIS 26            
1 59067U 24039S   25155.57749591  .00005364  00000+0  45845-3 0  9996
2 59067  95.3755 336.5694 0155286 203.9110 155.4848 14.88925293 68440
SITRO-AIS 27            
1 59068U 24039T   25155.57359471  .00005166  00000+0  43871-3 0  9998
2 59068  95.3756 336.6890 0154574 203.2826 156.1346 14.89247593 68450
SITRO-AIS 28            
1 59071U 24039U   25155.56079558  .00004544  00000+0  38594-3 0  9991
2 59071  95.3757 336.7066 0154449 203.2579 156.1606 14.89289384 68450
GRBBETA                 
1 60237U 24128C   25155.54533667  .00004608  00000+0  35025-3 0  9997
2 60237  61.9911  97.1111 0051637  56.4103 304.1901 15.02588496 49445
OOV-CUBE (TUBSAT-30)    
1 60240U 24128F   25155.33093188  .00002771  00000+0  23080-3 0  9994
2 60240  61.9953 100.5963 0051497  53.1921 307.3877 15.00225241 49378
ROBUSTA-3A (MEDITERRAN*)
1 60243U 24128J   25155.25893209  .00006054  00000+0  43245-3 0  9993
2 60243  61.9879  97.2903 0050305  50.0152 310.5340 15.04561072 49429
LASARSAT                
1 62391U 24247Q   25155.14313935  .00017960  00000+0  69913-3 0  9990
2 62391  44.9852 189.5555 0007519   5.6992 354.3975 15.25787174 25231
CROCUBE                 
1 62394U 24247T   25155.46521184  .00009164  00000+0  36071-3 0  9991
2 62394  44.9806 187.7202 0007991   9.3615 350.7415 15.25967250 25288
